{
  "type": "FeatureCollection",
  "features": [
    {
      "type": "Feature",
      "properties": {
        "norad_id": 30817,
        "name": "FENGYUN 1C DEB",
        "group": "fengyun-1c-debris",
        "lat": 49.19494853764436,
        "lon": -24.300169854788532,
        "alt_km": 927.6835274204477,
        "timestamp": "2025-12-22T04:03:39.448044+00:00",
        "meta_object_name": "FENGYUN 1C DEB",
        "meta_object_id": "1999-025AVB",
        "meta_epoch": "2025-12-21T10:40:37.228512",
        "meta_mean_motion": 14.00725647,
        "meta_eccentricity": 0.00575445,
        "meta_inclination": 98.7854,
        "meta_ra_of_asc_node": 345.3222,
        "meta_arg_of_pericenter": 220.0513,
        "meta_mean_anomaly": 139.6403,
        "meta_ephemeris_type": 0,
        "meta_classification_type": "U",
        "meta_norad_cat_id": 30817,
        "meta_element_set_no": 999,
        "meta_rev_at_epoch": 96031,
        "meta_bstar": 0.00012209363,
        "meta_mean_motion_dot": 1.42e-06,
        "meta_mean_motion_ddot": 0,
        "tle_line1": "1 30817U 99025AVB 25355.44487533  .00000142  00000+0  12209-3 0  9995",
        "tle_line2": "2 30817  98.7854 345.3222 0057544 220.0513 139.6403 14.00725647960312"
      },
      "geometry": {
        "type": "Point",
        "coordinates": [
          -24.300169854788532,
          49.19494853764436
        ]
      }
    },
    {
      "type": "Feature",
      "properties": {
        "norad_id": 30820,
        "name": "FENGYUN 1C DEB",
        "group": "fengyun-1c-debris",
        "lat": -74.7706313106592,
        "lon": -121.81030078166461,
        "alt_km": 831.8918535544053,
        "timestamp": "2025-12-22T04:03:39.448055+00:00",
        "meta_object_name": "FENGYUN 1C DEB",
        "meta_object_id": "1999-025AVE",
        "meta_epoch": "2025-12-20T01:01:00.867360",
        "meta_mean_motion": 14.21453719,
        "meta_eccentricity": 0.00521121,
        "meta_inclination": 98.6769,
        "meta_ra_of_asc_node": 90.2187,
        "meta_arg_of_pericenter": 166.8384,
        "meta_mean_anomaly": 12.569,
        "meta_ephemeris_type": 0,
        "meta_classification_type": "U",
        "meta_norad_cat_id": 30820,
        "meta_element_set_no": 999,
        "meta_rev_at_epoch": 96527,
        "meta_bstar": 0.001235858,
        "meta_mean_motion_dot": 2.697e-05,
        "meta_mean_motion_ddot": 0,
        "tle_line1": "1 30820U 99025AVE 25354.04237115  .00002697  00000+0  12359-2 0  9995",
        "tle_line2": "2 30820  98.6769  90.2187 0052112 166.8384  12.5690 14.21453719965273"
      },
      "geometry": {
        "type": "Point",
        "coordinates": [
          -121.81030078166461,
          -74.7706313106592
        ]
      }
    },
    {
      "type": "Feature",
      "properties": {
        "norad_id": 30821,
        "name": "FENGYUN 1C DEB",
        "group": "fengyun-1c-debris",
        "lat": -5.596592211589155,
        "lon": -41.405049109713396,
        "alt_km": 669.2205614193963,
        "timestamp": "2025-12-22T04:03:39.448065+00:00",
        "meta_object_name": "FENGYUN 1C DEB",
        "meta_object_id": "1999-025AVF",
        "meta_epoch": "2025-12-21T09:14:46.572000",
        "meta_mean_motion": 14.49711563,
        "meta_eccentricity": 0.00866274,
        "meta_inclination": 99.104,
        "meta_ra_of_asc_node": 138.6492,
        "meta_arg_of_pericenter": 180.1107,
        "meta_mean_anomaly": 236.2597,
        "meta_ephemeris_type": 0,
        "meta_classification_type": "U",
        "meta_norad_cat_id": 30821,
        "meta_element_set_no": 999,
        "meta_rev_at_epoch": 98914,
        "meta_bstar": 0.00063106349,
        "meta_mean_motion_dot": 2.494e-05,
        "meta_mean_motion_ddot": 0,
        "tle_line1": "1 30821U 99025AVF 25355.38526125  .00002494  00000+0  63106-3 0  9998",
        "tle_line2": "2 30821  99.1040 138.6492 0086627 180.1107 236.2597 14.49711563989145"
      },
      "geometry": {
        "type": "Point",
        "coordinates": [
          -41.405049109713396,
          -5.596592211589155
        ]
      }
    },
    {
      "type": "Feature",
      "properties": {
        "norad_id": 30822,
        "name": "FENGYUN 1C DEB",
        "group": "fengyun-1c-debris",
        "lat": -58.751397164946034,
        "lon": -170.6967119501018,
        "alt_km": 811.503517856072,
        "timestamp": "2025-12-22T04:03:39.448075+00:00",
        "meta_object_name": "FENGYUN 1C DEB",
        "meta_object_id": "1999-025AVG",
        "meta_epoch": "2025-12-21T14:02:44.488032",
        "meta_mean_motion": 14.11353011,
        "meta_eccentricity": 0.0073272,
        "meta_inclination": 98.7342,
        "meta_ra_of_asc_node": 23.4111,
        "meta_arg_of_pericenter": 259.9283,
        "meta_mean_anomaly": 254.7343,
        "meta_ephemeris_type": 0,
        "meta_classification_type": "U",
        "meta_norad_cat_id": 30822,
        "meta_element_set_no": 999,
        "meta_rev_at_epoch": 96826,
        "meta_bstar": 0.00027186,
        "meta_mean_motion_dot": 4.61e-06,
        "meta_mean_motion_ddot": 0,
        "tle_line1": "1 30822U 99025AVG 25355.58523713  .00000461  00000+0  27186-3 0  9991",
        "tle_line2": "2 30822  98.7342  23.4111 0073272 259.9283 254.7343 14.11353011968260"
      },
      "geometry": {
        "type": "Point",
        "coordinates": [
          -170.6967119501018,
          -58.751397164946034
        ]
      }
    },
    {
      "type": "Feature",
      "properties": {
        "norad_id": 30823,
        "name": "FENGYUN 1C DEB",
        "group": "fengyun-1c-debris",
        "lat": 36.73434327947927,
        "lon": 130.2159853995082,
        "alt_km": 791.040182254048,
        "timestamp": "2025-12-22T04:03:39.448084+00:00",
        "meta_object_name": "FENGYUN 1C DEB",
        "meta_object_id": "1999-025AVH",
        "meta_epoch": "2025-12-19T21:48:58.565088",
        "meta_mean_motion": 14.02564135,
        "meta_eccentricity": 0.0134234,
        "meta_inclination": 98.7634,
        "meta_ra_of_asc_node": 134.6515,
        "meta_arg_of_pericenter": 64.6202,
        "meta_mean_anomaly": 87.319,
        "meta_ephemeris_type": 0,
        "meta_classification_type": "U",
        "meta_norad_cat_id": 30823,
        "meta_element_set_no": 999,
        "meta_rev_at_epoch": 96134,
        "meta_bstar": 0.00016736,
        "meta_mean_motion_dot": 2.38e-06,
        "meta_mean_motion_ddot": 0,
        "tle_line1": "1 30823U 99025AVH 25353.90901117  .00000238  00000+0  16736-3 0  9995",
        "tle_line2": "2 30823  98.7634 134.6515 0134234  64.6202  87.3190 14.02564135961349"
      },
      "geometry": {
        "type": "Point",
        "coordinates": [
          130.2159853995082,
          36.73434327947927
        ]
      }
    },
    {
      "type": "Feature",
      "properties": {
        "norad_id": 30826,
        "name": "FENGYUN 1C DEB",
        "group": "fengyun-1c-debris",
        "lat": -15.738965752944148,
        "lon": -165.2809303932653,
        "alt_km": 529.8749132187259,
        "timestamp": "2025-12-22T04:03:39.448095+00:00",
        "meta_object_name": "FENGYUN 1C DEB",
        "meta_object_id": "1999-025AVL",
        "meta_epoch": "2025-12-20T19:47:26.677248",
        "meta_mean_motion": 14.82301373,
        "meta_eccentricity": 0.01448173,
        "meta_inclination": 98.8662,
        "meta_ra_of_asc_node": 190.7086,
        "meta_arg_of_pericenter": 331.2092,
        "meta_mean_anomaly": 41.6036,
        "meta_ephemeris_type": 0,
        "meta_classification_type": "U",
        "meta_norad_cat_id": 30826,
        "meta_element_set_no": 999,
        "meta_rev_at_epoch": 406,
        "meta_bstar": 0.00035606275,
        "meta_mean_motion_dot": 3.34e-05,
        "meta_mean_motion_ddot": 0,
        "tle_line1": "1 30826U 99025AVL 25354.82461432  .00003340  00000+0  35606-3 0  9995",
        "tle_line2": "2 30826  98.8662 190.7086 0144817 331.2092  41.6036 14.82301373  4068"
      },
      "geometry": {
        "type": "Point",
        "coordinates": [
          -165.2809303932653,
          -15.738965752944148
        ]
      }
    },
    {
      "type": "Feature",
      "properties": {
        "norad_id": 30827,
        "name": "FENGYUN 1C DEB",
        "group": "fengyun-1c-debris",
        "lat": 69.49022295860583,
        "lon": -43.02980313509868,
        "alt_km": 752.5832390768492,
        "timestamp": "2025-12-22T04:03:39.448106+00:00",
        "meta_object_name": "FENGYUN 1C DEB",
        "meta_object_id": "1999-025AVM",
        "meta_epoch": "2025-12-17T10:10:02.381952",
        "meta_mean_motion": 14.37899318,
        "meta_eccentricity": 0.00435535,
        "meta_inclination": 98.9937,
        "meta_ra_of_asc_node": 337.0536,
        "meta_arg_of_pericenter": 164.8519,
        "meta_mean_anomaly": 195.3982,
        "meta_ephemeris_type": 0,
        "meta_classification_type": "U",
        "meta_norad_cat_id": 30827,
        "meta_element_set_no": 999,
        "meta_rev_at_epoch": 96616,
        "meta_bstar": 0.0023728084,
        "meta_mean_motion_dot": 7.201e-05,
        "meta_mean_motion_ddot": 0,
        "tle_line1": "1 30827U 99025AVM 25351.42363868  .00007201  00000+0  23728-2 0  9994",
        "tle_line2": "2 30827  98.9937 337.0536 0043553 164.8519 195.3982 14.37899318966166"
      },
      "geometry": {
        "type": "Point",
        "coordinates": [
          -43.02980313509868,
          69.49022295860583
        ]
      }
    }
  ]
}